MEAN_MOTION;ECCENTRICITY;INCLINATION;RA_OF_ASC_NODE;ARG_OF_PERICENTER;MEAN_ANOMALY;BSTAR;MEAN_MOTION_DOT;MEAN_MOTION_DDOT;TYPE
14.34218184;0.0001486;86.3922;84.0352;102.0514;258.0849;1.6048E-5;6.5E-7;0;Iridium
14.34218184;0.0001486;86.3922;84.0352;102.0514;258.0849;1.6048E-5;6.5E-7;0;Iridium
14.34218226;0.0001502;86.3922;83.8599;102.6311;257.5053;1.6837E-5;6.7E-7;0;Iridium
14.34218249;0.0001514;86.3922;83.6264;103.4404;256.6961;1.5824E-5;6.4E-7;0;Iridium
14.34218279;0.0001531;86.3923;83.4511;104.0153;256.1213;1.5836E-5;6.4E-7;0;Iridium
14.34218327;0.0001547;86.3923;83.2175;104.7033;255.4334;1.5358E-5;6.3E-7;0;Iridium
14.34218413;0.0001576;86.3924;82.8087;105.6972;254.4398;1.4531E-5;6.0E-7;0;Iridium
14.34218413;0.0001576;86.3924;82.8087;105.6972;254.4398;1.4531E-5;6.0E-7;0;Iridium
14.34218509;0.0001615;86.3924;82.3707;106.8372;253.3001;1.2934E-5;5.6E-7;0;Iridium
14.34218506;0.0001643;86.3925;82.1956;107.4762;252.6613;1.0906E-5;5.0E-7;0;Iridium
14.3421851;0.0001671;86.3925;81.962;108.1383;251.9994;8.5657E-6;4.4E-7;0;Iridium
14.3421854;0.0001687;86.3925;81.7868;108.1799;251.9581;7.9783E-6;4.2E-7;0;Iridium
14.34218573;0.0001708;86.3926;81.524;108.5872;251.5509;6.4774E-6;3.8E-7;0;Iridium
14.34218573;0.0001708;86.3926;81.524;108.5872;251.5509;6.4774E-6;3.8E-7;0;Iridium
14.34218606;0.0001725;86.3926;81.3488;108.8548;251.2835;6.4419E-6;3.8E-7;0;Iridium
14.34218702;0.0001765;86.3926;80.94;109.4467;250.692;7.6683E-6;4.1E-7;0;Iridium
14.34218753;0.0001777;86.3927;80.6773;109.0494;251.0894;8.7105E-6;4.4E-7;0;Iridium
14.34218777;0.000179;86.3927;80.5605;109.0235;251.1155;9.9771E-6;4.8E-7;0;Iridium
14.34218777;0.0001815;86.3928;80.2685;109.4672;250.672;7.4083E-6;4.1E-7;0;Iridium
14.34218789;0.0001833;86.3928;80.0933;109.6393;250.5001;7.7821E-6;4.2E-7;0;Iridium
14.34218791;0.0001855;86.3929;79.8597;109.9933;250.1462;7.2692E-6;4.0E-7;0;Iridium
14.34218802;0.0001872;86.3929;79.6846;110.0276;250.1121;6.8829E-6;3.9E-7;0;Iridium
14.34218862;0.0001899;86.393;79.4218;110.2298;249.9102;1.1091E-5;5.1E-7;0;Iridium
14.342189;0.0001915;86.393;79.2759;110.2552;249.885;1.3234E-5;5.7E-7;0;Iridium
14.34218999;0.0001943;86.3931;79.0131;110.3389;249.8016;1.8702E-5;7.2E-7;0;Iridium
14.34219003;0.0001948;86.3931;78.9839;110.3416;249.799;1.9044E-5;7.3E-7;0;Iridium
14.34219063;0.0001963;86.3931;78.838;110.3448;249.7959;2.071E-5;7.8E-7;0;Iridium
14.34219134;0.0001983;86.3932;78.6044;110.3235;249.8174;2.2474E-5;8.3E-7;0;Iridium
14.34219177;0.0002002;86.3932;78.4293;110.3114;249.8297;2.2205E-5;8.2E-7;0;Iridium
14.34219262;0.0002031;86.3933;78.1666;110.4099;249.7315;2.3353E-5;8.5E-7;0;Iridium
14.34219248;0.0002051;86.3933;78.0206;110.3853;249.7563;1.9221E-5;7.4E-7;0;Iridium
14.34215592;0.0002098;86.3935;77.7867;109.3196;250.8227;1.7882E-5;7.0E-7;0;Iridium
14.34215967;0.0002107;86.3933;77.5827;109.72;250.4223;1.7058E-5;6.8E-7;0;Iridium
14.34215978;0.0002125;86.3934;77.3784;109.5939;250.5486;1.1139E-5;5.1E-7;0;Iridium
14.34216061;0.0002148;86.3935;77.1741;109.4389;250.7039;1.5435E-5;6.3E-7;0;Iridium
14.34216124;0.0002173;86.3936;76.9406;109.4033;250.7398;1.6276E-5;6.5E-7;0;Iridium
14.34216128;0.0002176;86.3936;76.9114;109.3562;250.7869;1.632E-5;6.5E-7;0;Iridium
14.3421621;0.000219;86.3936;76.7655;109.3507;250.7925;2.0172E-5;7.6E-7;0;Iridium
14.34216277;0.0002216;86.3938;76.5028;109.2398;250.9038;1.9017E-5;7.3E-7;0;Iridium
14.34216329;0.0002236;86.3938;76.3277;109.0981;251.0457;1.8112E-5;7.1E-7;0;Iridium
14.34216409;0.000226;86.394;76.0942;108.9878;251.1563;1.913E-5;7.3E-7;0;Iridium
14.34216482;0.0002279;86.394;75.9191;108.8075;251.3368;1.9944E-5;7.6E-7;0;Iridium
14.34216561;0.00023;86.3941;75.6856;108.637;251.5075;2.0696E-5;7.8E-7;0;Iridium
14.34216612;0.0002319;86.3942;75.5106;108.4956;251.6492;2.0006E-5;7.6E-7;0;Iridium
14.34216634;0.0002339;86.3943;75.2771;108.2858;251.8592;1.7157E-5;6.8E-7;0;Iridium
14.34216658;0.0002361;86.3944;75.0728;108.0984;252.047;1.5184E-5;6.2E-7;0;Iridium
14.34216657;0.0002365;86.3944;75.0436;108.0953;252.05;1.4974E-5;6.2E-7;0;Iridium
14.34216752;0.0002402;86.3946;74.6643;107.6686;252.4772;1.5955E-5;6.4E-7;0;Iridium
14.34216762;0.0002419;86.3947;74.46;107.3723;252.7737;1.4782E-5;6.1E-7;0;Iridium
14.34216762;0.0002419;86.3947;74.46;107.3723;252.7737;1.4782E-5;6.1E-7;0;Iridium
14.34216806;0.0002438;86.3947;74.2557;107.0704;253.0759;1.5143E-5;6.2E-7;0;Iridium
14.3421688;0.0002458;86.3948;74.0223;106.8239;253.3227;1.7656E-5;6.9E-7;0;Iridium
14.3421688;0.0002458;86.3948;74.0223;106.8239;253.3227;1.7656E-5;6.9E-7;0;Iridium
14.34216923;0.0002479;86.3949;73.8181;106.5731;253.5737;1.7921E-5;7.0E-7;0;Iridium
14.34217015;0.0002493;86.3949;73.6138;106.2965;253.8505;2.0934E-5;7.8E-7;0;Iridium
14.34217094;0.0002517;86.395;73.4096;106.0633;254.084;2.2367E-5;8.2E-7;0;Iridium
14.34217195;0.0002535;86.3951;73.2053;105.8671;254.2804;2.5757E-5;9.2E-7;0;Iridium
14.34217277;0.0002558;86.3951;73.0011;105.4019;254.746;2.6713E-5;9.5E-7;0;Iridium
14.34217334;0.0002575;86.3953;72.7677;104.9692;255.1789;2.6622E-5;9.4E-7;0;Iridium
14.34217334;0.0002575;86.3953;72.7677;104.9692;255.1789;2.6622E-5;9.4E-7;0;Iridium
14.34217386;0.0002605;86.3953;72.5636;104.9039;255.2446;2.5852E-5;9.2E-7;0;Iridium
14.34217438;0.0002626;86.3954;72.3593;104.8312;255.3175;2.5466E-5;9.1E-7;0;Iridium
14.34217484;0.0002641;86.3955;72.1551;104.3413;255.8077;2.3962E-5;8.7E-7;0;Iridium
14.34217527;0.0002657;86.3956;71.9509;103.9724;256.1767;2.2763E-5;8.4E-7;0;Iridium
14.34217569;0.0002674;86.3957;71.7467;103.4962;256.6532;2.0664E-5;7.8E-7;0;Iridium
14.34217604;0.0002691;86.3958;71.5425;103.2966;256.8529;1.8833E-5;7.3E-7;0;Iridium
14.34217658;0.0002709;86.3959;71.3092;102.8197;257.3302;1.6723E-5;6.7E-7;0;Iridium
14.34217727;0.0002723;86.396;71.105;102.4537;257.6964;1.6485E-5;6.6E-7;0;Iridium
14.34217727;0.0002723;86.396;71.105;102.4537;257.6964;1.6485E-5;6.6E-7;0;Iridium
14.34217786;0.0002735;86.396;70.9008;101.9698;258.1804;1.5636E-5;6.4E-7;0;Iridium
14.34217914;0.0002765;86.3962;70.4924;101.2162;258.9345;1.4725E-5;6.1E-7;0;Iridium
14.34218038;0.000279;86.3963;70.1132;100.4019;259.7491;1.5725E-5;6.4E-7;0;Iridium
14.34218068;0.0002804;86.3964;69.8507;99.7267;260.4246;1.405E-5;5.9E-7;0;Iridium
14.34218068;0.0002804;86.3964;69.8507;99.7267;260.4246;1.405E-5;5.9E-7;0;Iridium
14.34218083;0.0002821;86.3965;69.6466;99.3636;260.7879;1.2582E-5;5.5E-7;0;Iridium
14.34218087;0.0002834;86.3967;69.4425;98.9874;261.1643;1.1747E-5;5.3E-7;0;Iridium
14.34218112;0.0002853;86.3967;69.2383;98.8906;261.2613;1.118E-5;5.1E-7;0;Iridium
14.3421817;0.0002873;86.3968;69.0342;98.8051;261.347;1.3293E-5;5.7E-7;0;Iridium
14.34218195;0.0002888;86.3969;68.8009;98.2156;261.9367;1.295E-5;5.6E-7;0;Iridium
14.34218267;0.0002897;86.3969;68.6259;97.9357;262.2168;1.5835E-5;6.4E-7;0;Iridium
14.34218311;0.000291;86.397;68.3926;97.321;262.8317;1.6277E-5;6.5E-7;0;Iridium
14.34218371;0.0002915;86.3971;68.1885;96.8021;263.3507;1.8484E-5;7.2E-7;0;Iridium
14.34218371;0.0002915;86.3971;68.1885;96.8021;263.3507;1.8484E-5;7.2E-7;0;Iridium
14.34218417;0.0002924;86.3971;67.9843;96.3151;263.8378;1.8993E-5;7.3E-7;0;Iridium
14.34218499;0.000293;86.3972;67.7802;95.9412;264.2118;2.1581E-5;8.0E-7;0;Iridium
14.34218535;0.0002944;86.3973;67.5469;95.387;264.7662;2.0843E-5;7.8E-7;0;Iridium
14.34218601;0.0002946;86.3973;67.372;94.9933;265.1599;2.248E-5;8.3E-7;0;Iridium
14.34218648;0.0002957;86.3974;67.1387;94.3482;265.8052;2.1389E-5;8.0E-7;0;Iridium
14.34218675;0.0002967;86.3975;66.9347;93.9817;266.1718;2.0411E-5;7.7E-7;0;Iridium
14.34218675;0.0002967;86.3975;66.9347;93.9817;266.1718;2.0411E-5;7.7E-7;0;Iridium
14.34218722;0.0002976;86.3975;66.7306;93.5222;266.6314;1.9493E-5;7.4E-7;0;Iridium
14.34218758;0.0002989;86.3976;66.4682;92.9246;267.2291;1.8107E-5;7.1E-7;0;Iridium
14.34218758;0.0002989;86.3976;66.4682;92.9246;267.2291;1.8107E-5;7.1E-7;0;Iridium
14.34218801;0.0002992;86.3977;66.3224;92.6101;267.5438;1.7331E-5;6.8E-7;0;Iridium
14.34218895;0.0003006;86.3977;66.0308;92.0733;268.0807;1.804E-5;7.0E-7;0;Iridium
14.34218948;0.0003008;86.3978;65.8851;91.7247;268.4294;1.7677E-5;6.9E-7;0;Iridium
14.34219033;0.0003015;86.3979;65.506;90.7517;269.4025;1.5618E-5;6.4E-7;0;Iridium
14.34219039;0.0003017;86.3979;65.4769;90.6939;269.4603;1.5597E-5;6.3E-7;0;Iridium
14.34219082;0.0003017;86.398;65.302;90.2737;269.8805;1.526E-5;6.3E-7;0;Iridium
14.34219128;0.0003028;86.3981;65.0688;89.8284;270.3259;1.402E-5;5.9E-7;0;Iridium
14.34219166;0.0003029;86.3983;64.8064;89.177;270.9773;1.3161E-5;5.7E-7;0;Iridium
14.34219166;0.0003029;86.3983;64.8064;89.177;270.9773;1.3161E-5;5.7E-7;0;Iridium
14.34219185;0.0003034;86.3984;64.6315;88.9726;271.1817;1.1632E-5;5.2E-7;0;Iridium
14.34219227;0.0003033;86.3984;64.4566;88.5825;271.5718;1.213E-5;5.4E-7;0;Iridium
14.34219248;0.0003046;86.3985;64.2234;88.2878;271.8666;1.0675E-5;5.0E-7;0;Iridium
14.34219272;0.0003044;86.3985;64.0485;87.6363;272.5181;1.0479E-5;4.9E-7;0;Iridium
14.34219331;0.0003049;86.3986;63.8153;87.1322;273.0223;1.1316E-5;5.1E-7;0;Iridium
14.3421936;0.0003049;86.3987;63.6113;86.6418;273.5126;1.1464E-5;5.2E-7;0;Iridium
14.3421936;0.0003049;86.3987;63.6113;86.6418;273.5126;1.1464E-5;5.2E-7;0;Iridium
14.3421936;0.0003049;86.3987;63.6113;86.6418;273.5126;1.1464E-5;5.2E-7;0;Iridium
14.34219428;0.0003055;86.3987;63.4073;86.3935;273.761;1.3909E-5;5.9E-7;0;Iridium
14.34219523;0.0003052;86.3988;63.2032;86.063;274.0915;1.6941E-5;6.7E-7;0;Iridium
14.34219549;0.000306;86.3988;62.9991;85.8444;274.3102;1.6816E-5;6.7E-7;0;Iridium
14.3421006;0.0003723;86.4001;62.7956;79.9565;280.2051;1.9951E-5;7.6E-7;0;Iridium
14.34215807;0.0003129;86.3987;62.5619;82.2168;277.9383;2.0462E-5;7.7E-7;0;Iridium
14.34215275;0.0003058;86.3989;62.3579;83.9159;276.2385;2.2055E-5;8.2E-7;0;Iridium
14.34215275;0.0003058;86.3989;62.3579;83.9159;276.2385;2.2055E-5;8.2E-7;0;Iridium
14.34215252;0.0003055;86.3989;62.1539;83.4549;276.6995;8.189E-6;4.3E-7;0;Iridium
14.3421533;0.0003052;86.3989;61.8915;82.9576;277.1967;9.1085E-6;4.5E-7;0;Iridium
14.34215344;0.0003048;86.3989;61.8333;82.8323;277.3219;9.743E-6;4.7E-7;0;Iridium
